EUTELSAT 139 WEST A     
1 28187U 04008A   26013.53130972  .00000087  00000+0  00000+0 0  9993
2 28187   5.4330  73.8770 0019385 202.9205 248.4698  1.00554299 79801
EUTELSAT 174A           
1 28924U 05052A   26018.54556589  .00000021  00000+0  00000+0 0  9992
2 28924   3.8383  78.4149 0006241 222.0319 187.9075  1.00269630 50837
EUTELSAT 33F            
1 29270U 06032A   26018.30367777  .00000170  00000+0  00000+0 0  9994
2 29270   1.2739  84.0374 0003421 221.6813 314.4007  1.00274350 45801
EUTELSAT HOTBIRD 13C    
1 33459U 08065A   26018.42986520 -.00000270  00000+0  00000+0 0  9994
2 33459   2.5647  81.0183 0003029 226.6859 274.5609  1.00270045 45846
EUTELSAT 36B            
1 36101U 09065A   26018.44979865  .00000128  00000+0  00000+0 0  9999
2 36101   0.1129  68.4541 0005719 232.8123  29.0060  1.00270100 59201
EUTELSAT KA-SAT 9A      
1 37258U 10069A   26018.37023817  .00000077  00000+0  00000+0 0  9991
2 37258   0.0506 344.0819 0002176 187.2533  88.7027  1.00270314 42503
EUTELSAT 7 WEST A       
1 37816U 11051A   26018.43818524 -.00000045  00000+0  00000+0 0  9993
2 37816   0.0619   8.9412 0003914 230.9063  28.4240  1.00271793 52374
EUTELSAT 16A            
1 37836U 11057A   26018.37153817  .00000119  00000+0  00000+0 0  9992
2 37836   0.0542 359.1687 0005307 297.9000 330.4476  1.00269697  5823
